[{"OBJECT_NAME":"NUSAT-33 (ALBANIA-2)","OBJECT_ID":"2023-001AQ","EPOCH":"2026-03-09T22:33:27.663264","MEAN_MOTION":15.26923259,"ECCENTRICITY":0.00076854,"INCLINATION":97.3178,"RA_OF_ASC_NODE":131.8399,"ARG_OF_PERICENTER":52.546,"MEAN_ANOMALY":307.6477,"EPHEMERIS_TYPE":0,"CLASSIFICATION_TYPE":"U","NORAD_CAT_ID":55047,"ELEMENT_SET_NO":999,"REV_AT_EPOCH":17716,"BSTAR":0.0004947656,"MEAN_MOTION_DOT":0.00013029,"MEAN_MOTION_DDOT":0},{"OBJECT_NAME":"STARLINK-31963","OBJECT_ID":"2024-100J","EPOCH":"2026-03-09T05:18:09.209088","MEAN_MOTION":15.2758323,"ECCENTRICITY":7.539e-5,"INCLINATION":43.0038,"RA_OF_ASC_NODE":128.1788,"ARG_OF_PERICENTER":236.4375,"MEAN_ANOMALY":123.6405,"EPHEMERIS_TYPE":0,"CLASSIFICATION_TYPE":"U","NORAD_CAT_ID":59893,"ELEMENT_SET_NO":999,"REV_AT_EPOCH":10108,"BSTAR":-9.6154661e-5,"MEAN_MOTION_DOT":-2.907e-5,"MEAN_MOTION_DDOT":0}]
